[{"OBJECT_NAME":"STARLINK-4490","OBJECT_ID":"2022-097X","EPOCH":"2026-03-09T12:11:45.953664","MEAN_MOTION":15.08837053,"ECCENTRICITY":0.0001525,"INCLINATION":53.2162,"RA_OF_ASC_NODE":105.1299,"ARG_OF_PERICENTER":81.641,"MEAN_ANOMALY":278.4755,"EPHEMERIS_TYPE":0,"CLASSIFICATION_TYPE":"U","NORAD_CAT_ID":53409,"ELEMENT_SET_NO":999,"REV_AT_EPOCH":19876,"BSTAR":5.0140834e-5,"MEAN_MOTION_DOT":5.1e-6,"MEAN_MOTION_DDOT":0},{"OBJECT_NAME":"YUNYAO-1 48","OBJECT_ID":"2025-059F","EPOCH":"2026-03-09T22:24:05.789376","MEAN_MOTION":15.10574052,"ECCENTRICITY":0.00165064,"INCLINATION":97.6074,"RA_OF_ASC_NODE":250.9983,"ARG_OF_PERICENTER":137.6901,"MEAN_ANOMALY":222.5605,"EPHEMERIS_TYPE":0,"CLASSIFICATION_TYPE":"U","NORAD_CAT_ID":63349,"ELEMENT_SET_NO":999,"REV_AT_EPOCH":5331,"BSTAR":0.00030523847,"MEAN_MOTION_DOT":4.989e-5,"MEAN_MOTION_DDOT":0}]
